# Planets and major natural satellites of the Solar System.
# The rest of the Solar System's natural satellites are in minormoons.ssc.
#
# The orbital and physical data for the planets necessarily come from a
# variety of sources.
#
#
# === Orbits ===
#
# CustomOrbits are used for most of the large bodies in the solar system.
# These are orbital calculations built into Celestia. In most cases,
# EllipticalOrbits are provided as well in order to give the reader of this
# file some rough idea of the shape and size of a body's orbit. If a body has
# a CustomOrbit defined, its EllipticalOrbit is *not* used by Celestia; the
# CustomOrbit will override the EllipticalOrbit.
#
# For the planets, the orbits are calculated using the VSOP87 theory
# (P. Bretagnon and G. Francou, "Planetary theories in rectangular and
# spherical variables. VSOP87 solutions", Astronomy & Astrophysics 202
# (1988) 309-315.
#
# The orbits of the Galilean satellites are from J. H. Lieske's "E5" theory
# as given in Jean Meeus's _Astronomical Algorithms_, pp. 301-315
#
# The orbits of the following Saturnian satellites are from Gerard Dourneau
# (1987), "Observations et etude du mouvement des huit premiers satellites
# de Saturne":
# Mimas, Enceladus, Tethys, Dione, Rhea, Titan, Hyperion, Iapetus
#
# The orbits of the five largest Uranian satellites are from Laskar and
# Jacobson (1978), "An Analytical Ephemeris of the Uranian Satellites"
# (Miranda, Ariel, Umbriel, Titania, and Oberon)
#
# **** IMPORTANT ****
# For applications where more accuracy is required, the orbits of any solar
# system body may be replaced by a SPICE kernel or a file of postion/velocity
# samples. Detailed documentation on how to do this may be found on the
# Celestia WikiBook:
#    https://en.wikibooks.org/wiki/Celestia/Trajectories#CustomOrbit
# It is also possible to use JPL's DE405 or DE406 ephemeris For the positions
# of the planets, Moon, and Pluto. Details are here:
#    https://en.wikibooks.org/wiki/Celestia/JPL_Ephemerides
# *******************
#
#
# === Rotational Elements ===
#
# For most bodies, IAU rotational elements are used. These are implemented
# internally by Celestia and selected by using a CustomRotation. The IAU
# rotational elements are given here:
#  http://astrogeology.usgs.gov/Projects/WGCCRE/
#
# UniformRotations are also listed for purely informational reasons; they are
# overridden by CustomRotations (when present.)
#
#
# When alternate data sources are used for orbits or rotational elements, the
# source is noted by a comment in the body definition.
#
#
# === Temperature, Albedo and Colors ===
# Bond albedo values were taken from the English Wikipedia, for Mars:
# http://www.tak2000.com/data/planets/mars.htm
# Geometric albedo and colors of planets was calculated from the spectra
# from this paper:
# https://arxiv.org/abs/1609.05048

"Mercury" "Sol"
{
	Class	"planet"
	Texture	"mercury.*"
	NormalMap	"mercury-normal.*"
	Color	[ 1.0 0.95415 0.86031 ]
	Radius	2439.7
	CustomOrbit	"vsop87-mercury"

	# Overridden by CustomOrbit
	# EllipticalOrbit
	# {
	#	Epoch	2451545.0  # 2000 Jan 01 12:00
	#	Period	0.240846264317122
	#	SemiMajorAxis	0.3870982121840369
	#	Eccentricity	0.2056302929816634
	#	Inclination	7.00501414069919
	#	AscendingNode	48.3305373398104
	#	ArgOfPericenter	29.12428280936123
	#	MeanAnomaly	174.7958829506606
	# }

	BodyFrame	{ EquatorJ2000 {} }
	CustomRotation	"iau-mercury"

	# Overridden by CustomRotation
	# UniformRotation
	# {
	#	Period	1407.509405
	#	Inclination	28.55
	#	AscendingNode	11.01
	#	MeridianAngle	329.548
	# }

	LunarLambert	0.5
	GeomAlbedo	0.141380
	BondAlbedo	0.088
	InfoURL	"https://en.wikipedia.org/wiki/Mercury_(planet)"
}

"Venus" "Sol"
{
	Class	"planet"
	Texture	"venus.*"
	NormalMap	"venus-normal.*"
	Color	[ 0.98965 1.0 0.98452 ]
	Radius	6051.8
	Atmosphere
	{
		Height	200
		MieScaleHeight	27
		Mie	0.02
		MieAsymmetry	-0.2
		Rayleigh	[ 0.0031 0.0058 0.0120 ]
		#Absorption	[ 0.0044 0.0040 0.0004 ]
		CloudHeight	48.5
		CloudSpeed	90
		CloudMap	"venus-clouds.*"
	}
	CustomOrbit	"vsop87-venus"

	# Overridden by CustomOrbit
	# EllipticalOrbit
	# {
	#	Epoch	2451545.0  # 2000 Jan 01 12:00
	#	Period	0.615190499860112
	#	SemiMajorAxis	0.7233269274790103
	#	Eccentricity	0.006755786250503024
	#	Inclination	3.394589648659516
	#	AscendingNode	76.67837463924961
	#	ArgOfPericenter	55.18596653686583
	#	MeanAnomaly	50.11477187351476
	# }

	BodyFrame	{ EquatorJ2000 {} }
	CustomRotation	"iau-venus"

	# Overridden by CustomRotation
	# UniformRotation
	# {
	#	Period	5832.443616
	#	Inclination	157.16
	#	AscendingNode	182.76
	#	MeridianAngle	19.80
	# }

	LunarLambert	0.5
	GeomAlbedo	0.672604
	BondAlbedo	0.760
	TempDiscrepancy	507.5
	InfoURL	"https://en.wikipedia.org/wiki/Venus"
}

"Earth" "Sol"
{
	Class	"planet"
	Texture	"earth.*"
	NightTexture	"earth-night.*"
	NormalMap	"earth-normal.*"
	Color	[ 0.87572 0.91517 1.0 ]
	SpecularColor	[ 0.50 0.44 0.40 ]
	SpecularPower	120
	Radius	6378.140
	Oblateness	0.0033528
	Atmosphere
	{
		Height	100
		Mie	0.0002
		MieAsymmetry	-0.7
		MieScaleHeight	8.5
		Rayleigh	[ 0.0054 0.0081 0.0167 ]
		Absorption	[ 0.0027 0.0017 0.0002 ]
		CloudHeight	7
		CloudSpeed	65
		CloudMap	"earth-clouds.*"
		CloudShadowDepth	1.0
	}
	CustomOrbit	"vsop87-earth"

	# Overridden by CustomOrbit
	# EllipticalOrbit
	# {
	#	Epoch	2451545.0  # 2000 Jan 01 12:00
	#	Period	1.00069071545358
	#	SemiMajorAxis	1.000448828928361
	#	Eccentricity	0.0171186290535764
	#	Inclination	0.000418134426968885
	#	AscendingNode	135.0829426264774
	#	ArgOfPericenter	326.7259945200456
	#	MeanAnomaly	358.6172562406391
	# }

	# Orientation of Earth's axis with respect to the ecliptic plane and
	# equinox of J2000 is computed with the long period extension of
	# extension of the the P03 precession model presented in
	# "Long-periodic Precession Parameters", J. Vondrak (2006)
	BodyFrame	{ EclipticJ2000 {} }
	CustomRotation	"earth-p03lp"

	# Overridden by CustomRotation
	# UniformRotation
	# {
	#	Period	23.93447117
	#	Inclination	-23.4392911
	#	MeridianAngle	280.147
	# }

	LunarLambert	0.5
	GeomAlbedo	0.449576
	BondAlbedo	0.306
	TempDiscrepancy	33.5
	InfoURL	"https://en.wikipedia.org/wiki/Earth"
}

"Moon:Earth I" "Sol/Earth"
{
	Class	"moon"
	Texture	"moon.*"
	NormalMap	"moon-normal.*"
	Color	[ 1.0 0.94582 0.865 ]
	Radius	1738.14
	Oblateness	0.00125
	CustomOrbit	"moon"

	# Overridden by CustomOrbit
	# OrbitFrame
	# {
	#	EclipticJ2000	{ Center "Sol/Earth" }
	# }
	# EllipticalOrbit
	# {
	#	Epoch	2451545.0  # 2000 Jan 01 12:00
	#	Period	27.321661
	#	SemiMajorAxis	384399
	#	Eccentricity	0.05490
	#	Inclination	5.240273
	#	AscendingNode	123.958056
	#	ArgOfPericenter	308.922672
	#	MeanAnomaly	146.673275
	# }

	OrbitFrame
	{
		EquatorJ2000	{ Center "Sol/Earth" }
	}
	BodyFrame	{ EquatorJ2000 {} }
	CustomRotation	"iau-moon"

	# Overridden by CustomRotation
	# UniformRotation
	# {
	#	Inclination	23.4608
	#	AscendingNode	359.9949
	#	MeridianAngle	38.3213
	# }

	LunarLambert	0.5
	GeomAlbedo	0.136
	BondAlbedo	0.11
	InfoURL	"https://en.wikipedia.org/wiki/Moon"
}

"Mars" "Sol"
{
	Class	"planet"
	Texture	"mars.*"
	NormalMap	"mars-normal.*"
	Color	[ 1.0 0.79855 0.56429 ]
	Radius	3396.2
	Oblateness	0.00589
	Atmosphere
	{
		Height	80
		Mie	0.003
		MieScaleHeight	11.1
		Rayleigh	[ 0.00022 0.00034 0.00070 ]
		Absorption	[ 0.0020 0.0020 0.0030 ]
		CloudHeight	30
		CloudSpeed	32
		CloudMap	"mars-clouds.*"
	}
	CustomOrbit	"vsop87-mars"

	# Overridden by CustomOrbit
	# EllipticalOrbit
	# {
	#	Epoch	2451545.0  # 2000 Jan 01 12:00
	#	Period	1.88082484103404
	#	SemiMajorAxis	1.523678992954245
	#	Eccentricity	0.09331510145396012
	#	Inclination	1.849876432291737
	#	AscendingNode	49.56200626315643
	#	ArgOfPericenter	286.5373825261921
	#	MeanAnomaly	19.35648274604994
	# }

	BodyFrame	{ EquatorJ2000 {} }
	CustomRotation	"iau-mars"

	# Overridden by CustomRotation
	# UniformRotation
	# {
	#	Period	24.622962156
	#	Inclination	37.11350
	#	AscendingNode	47.68143
	#	MeridianAngle	176.630
	# }

	LunarLambert	0.5
	GeomAlbedo	0.174821
	BondAlbedo	0.290
	TempDiscrepancy	2
	InfoURL	"https://en.wikipedia.org/wiki/Mars"
}

"Phobos:Mars I" "Sol/Mars"
{
	Class	"minormoon"
	Mesh	"phobos.cmod"
	MeshCenter	[ -0.233 -0.156 -0.168 ]
	Texture	"phobos.*"
	Color	[ 1.0 0.98516 0.94386 ]
	Radius	13.1
	OrbitFrame
	{
		EclipticJ2000	{ Center "Sol/Mars" }
	}
	EllipticalOrbit
	{
		Epoch	2456655.5  # 2013 Dec 29
		Period	0.31891023
		SemiMajorAxis	9376
		Eccentricity	0.0151
		Inclination	27.235297
		AscendingNode	84.938846
		ArgOfPericenter	48.660664
		MeanAnomaly	85.232720
	}
	BodyFrame	{ EquatorJ2000 {} }
	CustomRotation	"iau-phobos"

	# Overridden by CustomRotation
	# UniformRotation
	# {
	#	Inclination	37.10
	#	AscendingNode	47.68
	#	MeridianAngle	35.06
	# }

	LunarLambert	0.5
	GeomAlbedo	0.071
	BondAlbedo	0.027
	InfoURL	"https://en.wikipedia.org/wiki/Phobos_(moon)"
}

"Deimos:Mars II" "Sol/Mars"
{
	Class	"minormoon"
	Mesh	"deimos.cmod"
	Texture	"deimos.*"
	Color	[ 1.0 0.97168 0.93149 ]
	Radius	7.8
	OrbitFrame
	{
		EclipticJ2000	{ Center "Sol/Mars" }
	}
	EllipticalOrbit
	{
		Epoch	2443431.5  # 1977 Oct 15
		Period	1.2624407
		SemiMajorAxis	23463.2
		Eccentricity	0.00033
		Inclination	24.167070
		AscendingNode	84.377158
		ArgOfPericenter	61.616854
		MeanAnomaly	213.688382
	}
	BodyFrame	{ EquatorJ2000 {} }
	CustomRotation	"iau-deimos"

	# Overridden by CustomRotation
	# UniformRotation
	# {
	#	Inclination	36.48
	#	AscendingNode	47.65
	#	MeridianAngle	79.41
	# }

	LunarLambert	0.5
	GeomAlbedo	0.068
	InfoURL	"https://en.wikipedia.org/wiki/Deimos_(moon)"
}

